FLOCK 4G-30             
1 62679U 25009BY  26068.70871344  .00013147  00000+0  49475-3 0  9999
2 62679  97.3969 150.6012 0003795 342.4152  17.6955 15.27244548121341
STARLINK-32915          
1 63152U 25043W   26067.90914219  .00036119  00000+0  13153-2 0  9991
2 63152  42.9991  27.4604 0001231 246.1784 113.8939 15.27588605 57165
